{
    "links": {
        "self": "http://www.neowsapp.com/rest/v1/neo/3789687?api_key=iIulBulltgU6a56xZRHN4H3l9WmuAYTsLGpBGhQ2"
    },
    "id": "3789687",
    "neo_reference_id": "3789687",
    "name": "(2017 WN15)",
    "designation": "2017 WN15",
    "nasa_jpl_url": "http://ssd.jpl.nasa.gov/sbdb.cgi?sstr=3789687",
    "absolute_magnitude_h": 24.8,
    "estimated_diameter": {
        "kilometers": {
            "estimated_diameter_min": 0.0291443905,
            "estimated_diameter_max": 0.0651688382
        },
        "meters": {
            "estimated_diameter_min": 29.1443904535,
            "estimated_diameter_max": 65.1688382168
        },
        "miles": {
            "estimated_diameter_min": 0.018109479,
            "estimated_diameter_max": 0.0404940262
        },
        "feet": {
            "estimated_diameter_min": 95.6180819754,
            "estimated_diameter_max": 213.8085311752
        }
    },
    "is_potentially_hazardous_asteroid": false,
    "close_approach_data": [
        {
            "close_approach_date": "2017-11-29",
            "close_approach_date_full": "2017-Nov-29 04:04",
            "epoch_date_close_approach": 1511928240000,
            "relative_velocity": {
                "kilometers_per_second": "19.3716836618",
                "kilometers_per_hour": "69738.0611823634",
                "miles_per_hour": "43332.5191830079"
            },
            "miss_distance": {
                "astronomical": "0.0189424447",
                "lunar": "7.3686109883",
                "kilometers": "2833749.379712789",
                "miles": "1760810.2146989282"
            },
            "orbiting_body": "Earth"
        }
    ],
    "orbital_data": {
        "orbit_id": "1",
        "orbit_determination_date": "2017-11-26 18:12:12",
        "first_observation_date": "2017-11-24",
        "last_observation_date": "2017-11-26",
        "data_arc_in_days": 2,
        "observations_used": 38,
        "orbit_uncertainty": "8",
        "minimum_orbit_intersection": ".0124036",
        "jupiter_tisserand_invariant": "3.040",
        "epoch_osculation": "2458083.5",
        "eccentricity": ".7260537150863047",
        "semi_major_axis": "2.492148759621022",
        "inclination": ".9740618994546468",
        "ascending_node_longitude": "171.7857536652977",
        "orbital_period": "1437.008610508111",
        "perihelion_distance": ".6827148941504529",
        "perihelion_argument": "330.2310547018672",
        "aphelion_distance": "4.301582625091592",
        "perihelion_time": "2458129.130439775721",
        "mean_anomaly": "348.5686430831815",
        "mean_motion": ".2505204195489878",
        "equinox": "J2000",
        "orbit_class": {
            "orbit_class_type": "APO",
            "orbit_class_description": "Near-Earth asteroid orbits which cross the Earth’s orbit similar to that of 1862 Apollo",
            "orbit_class_range": "a (semi-major axis) > 1.0 AU; q (perihelion) < 1.017 AU"
        }
    },
    "is_sentry_object": false
}